<?xml version='1.0' encoding='UTF-8'?>
<osm version='0.6' upload='false' generator='JOSM'>
  <node id='-1' action='modify' visible='true' lat='0.0' lon='0.0'>
    <tag k='collision' v='yes' />
    <tag k='gs' v='globalconfig' />
    <tag k='lanelet' v='maps/Town04.xodr_ll2.osm' />
    <tag k='mapcosim' v='Town04' />
    <tag k='name' v='S4 Surround Overtake Town04 v1 (seed 42)' />
    <tag k='timeout' v='30' />
    <tag k='version' v='2.0' />
  </node>
  <node id='-2' action='modify' visible='true' lat='0.0' lon='0.0'>
    <tag k='altitude' v='300' />
    <tag k='area' v='100' />
    <tag k='gs' v='origin' />
  </node>
  <node id='1001' action='modify' visible='true' lat='0.000781312' lon='0.003643845'>
    <tag k='bsource' v='behavior_agent' />
    <tag k='btype' v='EV' />
    <tag k='driver_speed' v='8.33' />
    <tag k='gs' v='vehicle' />
    <tag k='model' v='vehicle.tesla.model3' />
    <tag k='name' v='ego_vehicle' />
    <tag k='vid' v='1' />
    <tag k='yaw' v='270.6' />
    <tag k='lane_change_after' v='8.0' />
    <tag k='lane_change_side' v='left' />
  </node>
  <node id='1002' action='modify' visible='true' lat='0.000808260' lon='0.003644127'>
  </node>
  <node id='1003' action='modify' visible='true' lat='0.001167567' lon='0.003647881'>
  </node>
  <node id='1004' action='modify' visible='true' lat='0.001526874' lon='0.003651635'>
  </node>
  <node id='1005' action='modify' visible='true' lat='0.001886180' lon='0.003655389'>
  </node>
  <node id='1006' action='modify' visible='true' lat='0.002245709' lon='0.003648899'>
  </node>
  <node id='1007' action='modify' visible='true' lat='0.002604916' lon='0.003559841'>
  </node>
  <node id='1008' action='modify' visible='true' lat='0.002965937' lon='0.003350758'>
  </node>
  <node id='1010' action='modify' visible='true' lat='0.000628821' lon='0.003643567'>
    <tag k='btree' v='drive.btree' />
    <tag k='btype' v='SDV' />
    <tag k='btconfig' v='m_keepvelocity=MVelKeepConfig(vel=MP(12.71,5,3))' />
    <tag k='gs' v='vehicle' />
    <tag k='model' v='vehicle.jeep.wrangler_rubicon' />
    <tag k='name' v='v2_same_as' />
    <tag k='route' v='route_v2' />
    <tag k='vid' v='2' />
    <tag k='yaw' v='270.4' />
  </node>
  <node id='1011' action='modify' visible='true' lat='0.000916052' lon='0.003645253'>
  </node>
  <node id='1012' action='modify' visible='true' lat='0.001275359' lon='0.003649007'>
  </node>
  <node id='1013' action='modify' visible='true' lat='0.001634665' lon='0.003652761'>
  </node>
  <node id='1014' action='modify' visible='true' lat='0.001993972' lon='0.003656515'>
  </node>
  <node id='1015' action='modify' visible='true' lat='0.002358578' lon='0.003631688'>
  </node>
  <node id='1016' action='modify' visible='true' lat='0.002717867' lon='0.003509448'>
  </node>
  <node id='1017' action='modify' visible='true' lat='0.003038199' lon='0.003288852'>
  </node>
  <node id='1019' action='modify' visible='true' lat='0.000733025' lon='0.003643567'>
    <tag k='btree' v='drive.btree' />
    <tag k='btype' v='SDV' />
    <tag k='btconfig' v='m_keepvelocity=MVelKeepConfig(vel=MP(12.71,5,3))' />
    <tag k='gs' v='vehicle' />
    <tag k='model' v='vehicle.audi.tt' />
    <tag k='name' v='v3_same_as' />
    <tag k='route' v='route_v3' />
    <tag k='vid' v='3' />
    <tag k='yaw' v='270.4' />
  </node>
  <node id='1020' action='modify' visible='true' lat='0.000870811' lon='0.003676223'>
  </node>
  <node id='1021' action='modify' visible='true' lat='0.001230117' lon='0.003679977'>
  </node>
  <node id='1022' action='modify' visible='true' lat='0.001589424' lon='0.003683731'>
  </node>
  <node id='1023' action='modify' visible='true' lat='0.001948730' lon='0.003687486'>
  </node>
  <node id='1024' action='modify' visible='true' lat='0.002307058' lon='0.003672526'>
  </node>
  <node id='1025' action='modify' visible='true' lat='0.002661398' lon='0.003570483'>
  </node>
  <node id='1026' action='modify' visible='true' lat='0.003023049' lon='0.003344296'>
  </node>
  <node id='1028' action='modify' visible='true' lat='0.000684516' lon='0.003675008'>
    <tag k='btree' v='drive.btree' />
    <tag k='btype' v='SDV' />
    <tag k='btconfig' v='m_keepvelocity=MVelKeepConfig(vel=MP(12.71,5,3))' />
    <tag k='gs' v='vehicle' />
    <tag k='model' v='vehicle.audi.a2' />
    <tag k='name' v='v4_right_of' />
    <tag k='route' v='route_v4' />
    <tag k='vid' v='4' />
    <tag k='yaw' v='-89.6' />
  </node>
  <node id='1029' action='modify' visible='true' lat='0.000816915' lon='0.003675660'>
  </node>
  <node id='1030' action='modify' visible='true' lat='0.001176221' lon='0.003679414'>
  </node>
  <node id='1031' action='modify' visible='true' lat='0.001535528' lon='0.003683168'>
  </node>
  <node id='1032' action='modify' visible='true' lat='0.001894834' lon='0.003686922'>
  </node>
  <node id='1033' action='modify' visible='true' lat='0.002229821' lon='0.003682164'>
  </node>
  <node id='1034' action='modify' visible='true' lat='0.002607382' lon='0.003592629'>
  </node>
  <node id='1035' action='modify' visible='true' lat='0.002947059' lon='0.003405045'>
  </node>
  <node id='1037' action='modify' visible='true' lat='0.000621634' lon='0.003675008'>
    <tag k='btree' v='drive.btree' />
    <tag k='btype' v='SDV' />
    <tag k='btconfig' v='m_keepvelocity=MVelKeepConfig(vel=MP(12.71,5,3))' />
    <tag k='gs' v='vehicle' />
    <tag k='model' v='vehicle.audi.tt' />
    <tag k='name' v='v5_right_of' />
    <tag k='route' v='route_v5' />
    <tag k='vid' v='5' />
    <tag k='yaw' v='-89.6' />
  </node>
  <way id='1009' action='modify' visible='true'>
    <nd ref='1002' />
    <nd ref='1003' />
    <nd ref='1004' />
    <nd ref='1005' />
    <nd ref='1006' />
    <nd ref='1007' />
    <nd ref='1008' />
    <tag k='gs' v='route' />
    <tag k='name' v='route_v2' />
  </way>
  <way id='1018' action='modify' visible='true'>
    <nd ref='1011' />
    <nd ref='1012' />
    <nd ref='1013' />
    <nd ref='1014' />
    <nd ref='1015' />
    <nd ref='1016' />
    <nd ref='1017' />
    <tag k='gs' v='route' />
    <tag k='name' v='route_v3' />
  </way>
  <way id='1027' action='modify' visible='true'>
    <nd ref='1020' />
    <nd ref='1021' />
    <nd ref='1022' />
    <nd ref='1023' />
    <nd ref='1024' />
    <nd ref='1025' />
    <nd ref='1026' />
    <tag k='gs' v='route' />
    <tag k='name' v='route_v4' />
  </way>
  <way id='1036' action='modify' visible='true'>
    <nd ref='1029' />
    <nd ref='1030' />
    <nd ref='1031' />
    <nd ref='1032' />
    <nd ref='1033' />
    <nd ref='1034' />
    <nd ref='1035' />
    <tag k='gs' v='route' />
    <tag k='name' v='route_v5' />
  </way>
</osm>
